FLOCK 2K-01             
1 42852U 17042AD  17346.46491557  .00003140  00000-0  94452-4 0  9993
2 42852  96.9939 247.4661 0012792  72.3361 287.9279 15.34994401 22975
